[
  {
    "OBJECT_NAME": "STARLINK-35509",
    "OBJECT_ID": "25243Y",
    "EPOCH": "2025-11-11T06:00:02.000160",
    "MEAN_MOTION": 15.74118342,
    "ECCENTRICITY": 0.000131,
    "INCLINATION": 53.158,
    "RA_OF_ASC_NODE": 78.4101,
    "ARG_OF_PERICENTER": 88.8219,
    "MEAN_ANOMALY": 67.2623,
    "EPHEMERIS_TYPE": 0,
    "CLASSIFICATION_TYPE": "U",
    "NORAD_CAT_ID": 66199,
    "ELEMENT_SET_NO": 999,
    "REV_AT_EPOCH": 352,
    "BSTAR": 0.0005580100000000001,
    "MEAN_MOTION_DOT": 0.00081638,
    "MEAN_MOTION_DDOT": 0.0,
    "TLE_LINE1": "1 66199U 25243Y   25315.25002315  .00081638  00000+0  55801-3 0  9998",
    "TLE_LINE2": "2 66199  53.1580  78.4101 0001310  88.8219  67.2623 15.74118342  3529",
    "COMMENT": "Grouped by shell and plane from TLE"
  },
  {
    "OBJECT_NAME": "STARLINK-35551",
    "OBJECT_ID": "25243Z",
    "EPOCH": "2025-11-11T06:00:02.000160",
    "MEAN_MOTION": 15.74131999,
    "ECCENTRICITY": 8.7e-05,
    "INCLINATION": 53.158,
    "RA_OF_ASC_NODE": 78.418,
    "ARG_OF_PERICENTER": 108.0118,
    "MEAN_ANOMALY": 44.2416,
    "EPHEMERIS_TYPE": 0,
    "CLASSIFICATION_TYPE": "U",
    "NORAD_CAT_ID": 66200,
    "ELEMENT_SET_NO": 999,
    "REV_AT_EPOCH": 352,
    "BSTAR": 0.00031395,
    "MEAN_MOTION_DOT": 0.00045484,
    "MEAN_MOTION_DDOT": 0.0,
    "TLE_LINE1": "1 66200U 25243Z   25315.25002315  .00045484  00000+0  31395-3 0  9992",
    "TLE_LINE2": "2 66200  53.1580  78.4180 0000870 108.0118  44.2416 15.74131999  3520",
    "COMMENT": "Grouped by shell and plane from TLE"
  },
  {
    "OBJECT_NAME": "STARLINK-35543",
    "OBJECT_ID": "25243AA",
    "EPOCH": "2025-11-11T06:00:02.000160",
    "MEAN_MOTION": 15.74108068,
    "ECCENTRICITY": 0.0001145,
    "INCLINATION": 53.1581,
    "RA_OF_ASC_NODE": 78.421,
    "ARG_OF_PERICENTER": 98.6861,
    "MEAN_ANOMALY": 51.6493,
    "EPHEMERIS_TYPE": 0,
    "CLASSIFICATION_TYPE": "U",
    "NORAD_CAT_ID": 66201,
    "ELEMENT_SET_NO": 999,
    "REV_AT_EPOCH": 358,
    "BSTAR": 0.00068298,
    "MEAN_MOTION_DOT": 0.00100239,
    "MEAN_MOTION_DDOT": 0.0,
    "TLE_LINE1": "1 66201U 25243AA  25315.25002315  .00100239  00000+0  68298-3 0  9995",
    "TLE_LINE2": "2 66201  53.1581  78.4210 0001145  98.6861  51.6493 15.74108068  3585",
    "COMMENT": "Grouped by shell and plane from TLE"
  },
  {
    "OBJECT_NAME": "STARLINK-35534",
    "OBJECT_ID": "25243AB",
    "EPOCH": "2025-11-11T06:00:02.000160",
    "MEAN_MOTION": 15.74137441,
    "ECCENTRICITY": 0.0001241,
    "INCLINATION": 53.158,
    "RA_OF_ASC_NODE": 78.4257,
    "ARG_OF_PERICENTER": 78.9562,
    "MEAN_ANOMALY": 69.4534,
    "EPHEMERIS_TYPE": 0,
    "CLASSIFICATION_TYPE": "U",
    "NORAD_CAT_ID": 66202,
    "ELEMENT_SET_NO": 999,
    "REV_AT_EPOCH": 352,
    "BSTAR": 0.00032378,
    "MEAN_MOTION_DOT": 0.00046947,
    "MEAN_MOTION_DDOT": 0.0,
    "TLE_LINE1": "1 66202U 25243AB  25315.25002315  .00046947  00000+0  32378-3 0  9991",
    "TLE_LINE2": "2 66202  53.1580  78.4257 0001241  78.9562  69.4534 15.74137441  3526",
    "COMMENT": "Grouped by shell and plane from TLE"
  },
  {
    "OBJECT_NAME": "STARLINK-35548",
    "OBJECT_ID": "25243AC",
    "EPOCH": "2025-11-11T06:00:02.000160",
    "MEAN_MOTION": 15.74126639,
    "ECCENTRICITY": 0.0001052,
    "INCLINATION": 53.158,
    "RA_OF_ASC_NODE": 78.4301,
    "ARG_OF_PERICENTER": 93.0689,
    "MEAN_ANOMALY": 53.4327,
    "EPHEMERIS_TYPE": 0,
    "CLASSIFICATION_TYPE": "U",
    "NORAD_CAT_ID": 66203,
    "ELEMENT_SET_NO": 999,
    "REV_AT_EPOCH": 358,
    "BSTAR": 0.00035449000000000006,
    "MEAN_MOTION_DOT": 0.00051463,
    "MEAN_MOTION_DDOT": 0.0,
    "TLE_LINE1": "1 66203U 25243AC  25315.25002315  .00051463  00000+0  35449-3 0  9993",
    "TLE_LINE2": "2 66203  53.1580  78.4301 0001052  93.0689  53.4327 15.74126639  3581",
    "COMMENT": "Grouped by shell and plane from TLE"
  },
  {
    "OBJECT_NAME": "STARLINK-35490",
    "OBJECT_ID": "25243AD",
    "EPOCH": "2025-11-11T06:00:02.000160",
    "MEAN_MOTION": 15.7414331,
    "ECCENTRICITY": 0.0001064,
    "INCLINATION": 53.1579,
    "RA_OF_ASC_NODE": 78.4374,
    "ARG_OF_PERICENTER": 74.4635,
    "MEAN_ANOMALY": 68.1973,
    "EPHEMERIS_TYPE": 0,
    "CLASSIFICATION_TYPE": "U",
    "NORAD_CAT_ID": 66204,
    "ELEMENT_SET_NO": 999,
    "REV_AT_EPOCH": 347,
    "BSTAR": 0.00019052,
    "MEAN_MOTION_DOT": 0.00027308,
    "MEAN_MOTION_DDOT": 0.0,
    "TLE_LINE1": "1 66204U 25243AD  25315.25002315  .00027308  00000+0  19052-3 0  9997",
    "TLE_LINE2": "2 66204  53.1579  78.4374 0001064  74.4635  68.1973 15.74143310  3470",
    "COMMENT": "Grouped by shell and plane from TLE"
  }
]